NORAD_CAT_ID,OBJECT_NAME,OBJECT_TYPE,EPOCH,MEAN_MOTION,ECCENTRICITY,INCLINATION,RA_OF_ASC_NODE,ARG_OF_PERICENTER,MEAN_ANOMALY,BSTAR,MEAN_MOTION_DOT,MEAN_MOTION_DDOT,TLE_LINE0,TLE_LINE1,TLE_LINE2,SEMIMAJOR_AXIS,PERIOD,APOGEE,PERIGEE,DECAYED
55428.0,STARLINK-5064,PAYLOAD,2024-08-01 04:17:12,14.98335717,0.0002845,69.9998,120.9274,264.5699,95.5136,-0.00010211,-1.311e-05,0.0,0 STARLINK-5064,1 55428U 23014AP  24214.17862236 -.00001311  00000-0 -10211-3 0  9998,2 55428  69.9998 120.9274 0002845 264.5699  95.5136 14.98335717 83852,6950.175,96.107,574.018,570.063,0.0
55428.0,STARLINK-5064,PAYLOAD,2024-08-01 20:18:32,14.98343681,0.0002941,69.9995,119.2448,265.2854,94.797,-4.8326e-05,-6.7e-06,0.0,0 STARLINK-5064,1 55428U 23014AP  24214.84621141 -.00000670  00000-0 -48326-4 0  9996,2 55428  69.9995 119.2448 0002941 265.2854  94.7970 14.98343681 83015,6950.151,96.106,574.06,569.972,0.0
55428.0,STARLINK-5064,PAYLOAD,2024-08-01 21:54:40,14.9834446,0.0002928,69.9995,119.0764,266.2003,93.8822,-3.5986e-05,-5.23e-06,0.0,0 STARLINK-5064,1 55428U 23014AP  24214.91297021 -.00000523  00000-0 -35986-4 0  9995,2 55428  69.9995 119.0764 0002928 266.2003  93.8822 14.98344460 83962,6950.148,96.106,574.048,569.978,0.0
55428.0,STARLINK-5064,PAYLOAD,2024-08-02 02:43:03,14.983544,0.0002881,69.9999,118.5728,259.0867,100.9968,4.2616e-05,4.16e-06,0.0,0 STARLINK-5064,1 55428U 23014AP  24215.11323923  .00000416  00000-0  42616-4 0  9996,2 55428  69.9999 118.5728 0002881 259.0867 100.9968 14.98354400 83052,6950.117,96.105,573.985,569.98,0.0
55428.0,STARLINK-5064,PAYLOAD,2024-08-02 10:43:44,14.98342944,0.0002752,70.0015,117.7303,270.6818,89.4025,-7.1037e-05,-9.41e-06,0.0,0 STARLINK-5064,1 55428U 23014AP  24215.44704655 -.00000941  00000-0 -71037-4 0  9991,2 55428  70.0015 117.7303 0002752 270.6818  89.4025 14.98342944 83107,6950.153,96.106,573.931,570.105,0.0
55428.0,STARLINK-5064,PAYLOAD,2024-08-02 20:20:34,14.9831595,0.0002848,70.0,116.7199,270.6857,89.3975,1.1067e-06,-8e-07,0.0,0 STARLINK-5064,1 55428U 23014AP  24215.84762444 -.00000080  00000-0  11067-5 0  9996,2 55428  70.0000 116.7199 0002848 270.6857  89.3975 14.98315950 83168,6950.236,96.108,574.081,570.122,0.0
55428.0,STARLINK-5064,PAYLOAD,2024-08-02 21:56:42,14.983163,0.000284,70.0001,116.5517,270.4,89.6834,1.0366e-05,3.1e-07,0.0,0 STARLINK-5064,1 55428U 23014AP  24215.91438483  .00000031  00000-0  10366-4 0  9992,2 55428  70.0001 116.5517 0002840 270.4000  89.6834 14.98316300 84114,6950.235,96.108,574.074,570.126,0.0
55428.0,STARLINK-5064,PAYLOAD,2024-08-03 10:45:46,14.98333892,0.0002535,70.0012,115.2071,259.5688,100.5186,-0.00015191,-1.905e-05,0.0,0 STARLINK-5064,1 55428U 23014AP  24216.44845864 -.00001905  00000-0 -15191-3 0  9999,2 55428  70.0012 115.2071 0002535 259.5688 100.5186 14.98333892 83250,6950.181,96.107,573.808,570.284,0.0
55428.0,STARLINK-5064,PAYLOAD,2024-08-03 21:58:42,14.98338406,0.0002736,70.0002,114.0269,269.522,90.5625,7.6356e-06,-2e-08,0.0,0 STARLINK-5064,1 55428U 23014AP  24216.91577344 -.00000002  00000-0  76356-5 0  9994,2 55428  70.0002 114.0269 0002736 269.5220  90.5625 14.98338406 84265,6950.167,96.106,573.933,570.13,0.0
55428.0,STARLINK-5064,PAYLOAD,2024-08-04 02:47:06,14.98343957,0.0002774,70.0001,113.5219,268.9333,91.1509,9.3324e-05,1.021e-05,0.0,0 STARLINK-5064,1 55428U 23014AP  24217.11604836  .00001021  00000-0  93324-4 0  9998,2 55428  70.0001 113.5219 0002774 268.9333  91.1509 14.98343957 83357,6950.15,96.106,573.943,570.087,0.0
55428.0,STARLINK-5064,PAYLOAD,2024-08-04 10:47:47,14.98338447,0.000295,70.0015,112.6811,269.6183,90.4638,-6.7344e-05,-8.97e-06,0.0,0 STARLINK-5064,1 55428U 23014AP  24217.44985061 -.00000897  00000-0 -67344-4 0  9991,2 55428  70.0015 112.6811 0002950 269.6183  90.4638 14.98338447 83406,6950.167,96.106,574.082,569.981,0.0
55428.0,STARLINK-5064,PAYLOAD,2024-08-04 23:36:51,14.98341615,0.0002825,70.0012,111.3328,266.5629,93.5206,0.00042786,5.017e-05,0.0,0 STARLINK-5064,1 55428U 23014AP  24217.98393048  .00005017  00000-0  42786-3 0  9997,2 55428  70.0012 111.3328 0002825 266.5629  93.5206 14.98341615 84423,6950.157,96.106,573.985,570.059,0.0
55428.0,STARLINK-5064,PAYLOAD,2024-08-05 02:49:07,14.98350507,0.0002841,70.0016,110.9963,268.0938,91.9896,0.00062653,7.394e-05,0.0,0 STARLINK-5064,1 55428U 23014AP  24218.11744753  .00007394  00000-0  62653-3 0  9991,2 55428  70.0016 110.9963 0002841 268.0938  91.9896 14.98350507 83500,6950.129,96.106,573.969,570.02,0.0
55428.0,STARLINK-5064,PAYLOAD,2024-08-05 20:26:36,14.98326593,0.0002975,70.0016,109.1469,274.8726,85.2094,-0.0001032,-1.324e-05,0.0,0 STARLINK-5064,1 55428U 23014AP  24218.85181620 -.00001324  00000-0 -10320-3 0  9993,2 55428  70.0016 109.1469 0002975 274.8726  85.2094 14.98326593 83615,6950.203,96.107,574.136,570.001,0.0
55428.0,STARLINK-5064,PAYLOAD,2024-08-05 22:02:45,14.98325811,0.0002817,70.0011,108.9783,266.9653,93.1183,-5.785e-05,-7.83e-06,0.0,0 STARLINK-5064,1 55428U 23014AP  24218.91857747 -.00000783  00000-0 -57850-4 0  9998,2 55428  70.0011 108.9783 0002817 266.9653  93.1183 14.98325811 84566,6950.206,96.107,574.029,570.113,0.0
55428.0,STARLINK-5064,PAYLOAD,2024-08-06 02:51:09,14.98323644,0.0002872,70.0012,108.4731,269.8187,90.2643,-0.00015502,-1.942e-05,0.0,0 STARLINK-5064,1 55428U 23014AP  24219.11885934 -.00001942  00000-0 -15502-3 0  9995,2 55428  70.0012 108.4731 0002872 269.8187  90.2643 14.98323644 84594,6950.213,96.107,574.074,570.081,0.0
55428.0,STARLINK-5064,PAYLOAD,2024-08-06 20:28:37,14.98332933,0.0002915,70.0009,106.6214,267.6609,92.4216,7.4537e-05,7.97e-06,0.0,0 STARLINK-5064,1 55428U 23014AP  24219.85321629  .00000797  00000-0  74537-4 0  9991,2 55428  70.0009 106.6214 0002915 267.6609  92.4216 14.98332933 83768,6950.184,96.107,574.075,570.023,0.0
55428.0,STARLINK-5064,PAYLOAD,2024-08-06 22:04:46,14.98331711,0.0003002,70.0009,106.4518,271.8307,88.2508,0.00010726,1.187e-05,0.0,0 STARLINK-5064,1 55428U 23014AP  24219.91997720  .00001187  00000-0  10726-3 0  9992,2 55428  70.0009 106.4518 0003002 271.8307  88.2508 14.98331711 84719,6950.188,96.107,574.139,569.966,0.0
55428.0,STARLINK-5064,PAYLOAD,2024-08-07 02:53:09,14.9833973,0.0002879,70.0011,105.9494,263.8992,96.1839,0.00017804,2.033e-05,0.0,0 STARLINK-5064,1 55428U 23014AP  24220.12025225  .00002033  00000-0  17804-3 0  9994,2 55428  70.0011 105.9494 0002879 263.8992  96.1839 14.98339730 84748,6950.163,96.106,574.029,570.027,0.0
55428.0,STARLINK-5064,PAYLOAD,2024-08-07 20:30:38,14.98337813,0.0002811,70.0013,104.0968,267.9957,92.0881,0.00045728,5.368e-05,0.0,0 STARLINK-5064,1 55428U 23014AP  24220.85461419  .00005368  00000-0  45728-3 0  9993,2 55428  70.0013 104.0968 0002811 267.9957  92.0881 14.98337813 83918,6950.169,96.106,573.987,570.08,0.0
55428.0,STARLINK-5064,PAYLOAD,2024-08-08 02:55:10,14.98349335,0.0002794,70.0015,103.4234,268.5421,91.5418,0.00059971,7.073e-05,0.0,0 STARLINK-5064,1 55428U 23014AP  24221.12164903  .00007073  00000-0  59971-3 0  9992,2 55428  70.0015 103.4234 0002794 268.5421  91.5418 14.98349335 84892,6950.133,96.106,573.94,570.056,0.0
55428.0,STARLINK-5064,PAYLOAD,2024-08-08 20:32:39,14.98337728,0.0002484,70.002,101.5711,252.0353,108.0535,7.7938e-05,8.37e-06,0.0,0 STARLINK-5064,1 55428U 23014AP  24221.85600870  .00000837  00000-0  77938-4 0  9995,2 55428  70.0020 101.5711 0002484 252.0353 108.0535 14.98337728 84061,6950.169,96.107,573.76,570.308,0.0
55428.0,STARLINK-5064,PAYLOAD,2024-08-08 22:08:48,14.98324222,0.000246,70.0016,101.401,262.6617,97.4262,0.00058504,6.893e-05,0.0,0 STARLINK-5064,1 55428U 23014AP  24221.92277782  .00006893  00000-0  58504-3 0  9990,2 55428  70.0016 101.4010 0002460 262.6617  97.4262 14.98324222 85010,6950.211,96.107,573.786,570.366,0.0
55428.0,STARLINK-5064,PAYLOAD,2024-08-09 01:21:03,14.98323884,0.0002698,70.0004,101.0641,264.3336,95.7515,0.00039822,4.661e-05,0.0,0 STARLINK-5064,1 55428U 23014AP  24222.05629498  .00004661  00000-0  39822-3 0  9993,2 55428  70.0004 101.0641 0002698 264.3336  95.7515 14.98323884 84095,6950.212,96.107,573.952,570.202,0.0
55428.0,STARLINK-5064,PAYLOAD,2024-08-09 09:21:44,14.98324601,0.0002561,70.0003,100.224,273.4153,86.6713,-0.00011965,-1.52e-05,0.0,0 STARLINK-5064,1 55428U 23014AP  24222.39010414 -.00001520  00000-0 -11965-3 0  9993,2 55428  70.0003 100.2240 0002561 273.4153  86.6713 14.98324601 84140,6950.21,96.107,573.855,570.295,0.0
55428.0,STARLINK-5064,PAYLOAD,2024-08-09 20:34:41,14.98323372,0.0002699,70.0012,99.048,261.0962,98.9892,-0.00010586,-1.356e-05,0.0,0 STARLINK-5064,1 55428U 23014AP  24222.85742448 -.00001356  00000-0 -10586-3 0  9998,2 55428  70.0012  99.0480 0002699 261.0962  98.9892 14.98323372 85154,6950.213,96.107,573.954,570.203,0.0
55428.0,STARLINK-5064,PAYLOAD,2024-08-09 23:46:57,14.98326743,0.0002705,70.0003,98.7092,264.5224,95.5627,-7.3445e-05,-9.69e-06,0.0,0 STARLINK-5064,1 55428U 23014AP  24222.99094200 -.00000969  00000-0 -73445-4 0  9992,2 55428  70.0003  98.7092 0002705 264.5224  95.5627 14.98326743 85172,6950.203,96.107,573.948,570.188,0.0
55428.0,STARLINK-5064,PAYLOAD,2024-08-10 20:36:43,14.98317151,0.0002252,70.0027,96.5212,233.5016,126.5935,0.00016167,1.836e-05,0.0,0 STARLINK-5064,1 55428U 23014AP  24223.85883405  .00001836  00000-0  16167-3 0  9990,2 55428  70.0027  96.5212 0002252 233.5016 126.5935 14.98317151 84360,6950.233,96.108,573.663,570.532,0.0
55428.0,STARLINK-5064,PAYLOAD,2024-08-10 22:12:50,14.98331242,0.0002864,69.9999,96.3529,267.9289,92.1542,0.00012374,1.384e-05,0.0,0 STARLINK-5064,1 55428U 23014AP  24223.92558646  .00001384  00000-0  12374-3 0  9998,2 55428  69.9999  96.3529 0002864 267.9289  92.1542 14.98331242 85311,6950.189,96.107,574.045,570.064,0.0
55428.0,STARLINK-5064,PAYLOAD,2024-08-11 01:25:06,14.98336548,0.0002855,70.0,96.0166,269.8898,90.1934,0.00018905,2.164e-05,0.0,0 STARLINK-5064,1 55428U 23014AP  24224.05910252  .00002164  00000-0  18905-3 0  9991,2 55428  70.0000  96.0166 0002855 269.8898  90.1934 14.98336548 84392,6950.173,96.107,574.022,570.053,0.0
